[{"OBJECT_NAME":"STARLINK-35889","OBJECT_ID":"2025-303AC","EPOCH":"2026-03-09T23:14:27.235392","MEAN_MOTION":15.2758588,"ECCENTRICITY":7.669e-5,"INCLINATION":43,"RA_OF_ASC_NODE":309.4949,"ARG_OF_PERICENTER":265.206,"MEAN_ANOMALY":94.8704,"EPHEMERIS_TYPE":0,"CLASSIFICATION_TYPE":"U","NORAD_CAT_ID":67189,"ELEMENT_SET_NO":999,"REV_AT_EPOCH":1277,"BSTAR":0.0013174817,"MEAN_MOTION_DOT":0.00036176,"MEAN_MOTION_DDOT":0},{"OBJECT_NAME":"OBJECT BD","OBJECT_ID":"2025-313BD","EPOCH":"2026-03-09T15:06:44.992224","MEAN_MOTION":15.3000236,"ECCENTRICITY":0.00072867,"INCLINATION":97.397,"RA_OF_ASC_NODE":145.285,"ARG_OF_PERICENTER":333.4514,"MEAN_ANOMALY":26.6352,"EPHEMERIS_TYPE":0,"CLASSIFICATION_TYPE":"U","NORAD_CAT_ID":67299,"ELEMENT_SET_NO":999,"REV_AT_EPOCH":1083,"BSTAR":0.0027633805,"MEAN_MOTION_DOT":0.0008101,"MEAN_MOTION_DDOT":0}]
